COMMENT,ORIGINATOR,NORAD_CAT_ID,OBJECT_NAME,OBJECT_TYPE,CLASSIFICATION_TYPE,INTLDES,EPOCH,EPOCH_MICROSECONDS,MEAN_MOTION,ECCENTRICITY,INCLINATION,RA_OF_ASC_NODE,ARG_OF_PERICENTER,MEAN_ANOMALY,EPHEMERIS_TYPE,ELEMENT_SET_NO,REV_AT_EPOCH,BSTAR,MEAN_MOTION_DOT,MEAN_MOTION_DDOT,FILE,TLE_LINE0,TLE_LINE1,TLE_LINE2,OBJECT_ID,OBJECT_NUMBER,SEMIMAJOR_AXIS,PERIOD,APOGEE,PERIGEE,DECAYED,date
GENERATED VIA SPACETRACK.ORG API,18 SPCS,48896,SPACEBEE-105,PAYLOAD,U,21059T,2023/4/15 8:13,414912,15.27967274,0.0007458,97.5851,240.8581,132.6362,227.5507,0,999,9978,0.0016706,0.00045778,0,3887974,0 SPACEBEE-105,1 48896U 21059T   23105.34278258  .00045778  00000-0  16706-2 0  9995,2 48896  97.5851 240.8581 0007458 132.6362 227.5507 15.27967274 99788,2021-059T,48896,6860.027,94.243,487.008,476.775,0,
GENERATED VIA SPACETRACK.ORG API,18 SPCS,48896,SPACEBEE-105,PAYLOAD,U,21059T,2023/4/15 20:48,230624,15.28018752,0.0007402,97.5851,241.3913,130.7616,229.4266,0,999,9986,0.0017348,0.00047626,0,3888171,0 SPACEBEE-105,1 48896U 21059T   23105.86668091  .00047626  00000-0  17348-2 0  9997,2 48896  97.5851 241.3913 0007402 130.7616 229.4266 15.28018752 99864,2021-059T,48896,6859.873,94.24,486.815,476.66,0,
GENERATED VIA SPACETRACK.ORG API,18 SPCS,48896,SPACEBEE-105,PAYLOAD,U,21059T,2023/4/16 7:48,700320,15.28061936,0.0007354,97.5852,241.858,129.251,230.9382,0,999,9993,0.0016833,0.00046261,0,3888487,0 SPACEBEE-105,1 48896U 21059T   23106.32507755  .00046261  00000-0  16833-2 0  9990,2 48896  97.5852 241.8580 0007354 129.2510 230.9382 15.28061936 99938,2021-059T,48896,6859.743,94.237,486.653,476.564,0,
GENERATED VIA SPACETRACK.ORG API,18 SPCS,48896,SPACEBEE-105,PAYLOAD,U,21059T,2023/4/16 7:48,700320,15.28061936,0.0007354,97.5852,241.858,129.251,230.9382,0,999,9993,0.0016833,0.00046261,0,3888626,0 SPACEBEE-105,1 48896U 21059T   23106.32507755  .00046261  00000-0  16833-2 0  9990,2 48896  97.5852 241.8580 0007354 129.2510 230.9382 15.28061936 99938,2021-059T,48896,6859.743,94.237,486.653,476.564,0,
GENERATED VIA SPACETRACK.ORG API,18 SPCS,48896,SPACEBEE-105,PAYLOAD,U,21059T,2023/4/16 20:22,686432,15.28113323,0.000736,97.5856,242.3914,127.1524,233.0389,0,999,10001,0.0016765,0.00046146,0,3888799,0 SPACEBEE-105,1 48896U 21059T   23106.84894313  .00046146  00000-0  16765-2 0  9992,2 48896  97.5856 242.3914 0007360 127.1524 233.0389 15.28113323100019,2021-059T,48896,6859.59,94.234,486.503,476.406,0,
GENERATED VIA SPACETRACK.ORG API,18 SPCS,48896,SPACEBEE-105,PAYLOAD,U,21059T,2023/4/17 8:56,189056,15.28163874,0.0007346,97.5859,242.9247,125.1101,235.0828,0,999,10009,0.0017146,0.00047276,0,3889094,0 SPACEBEE-105,1 48896U 21059T   23107.37279154  .00047276  00000-0  17146-2 0  9990,2 48896  97.5859 242.9247 0007346 125.1101 235.0828 15.28163874100094,2021-059T,48896,6859.438,94.231,486.342,476.264,0,
GENERATED VIA SPACETRACK.ORG API,18 SPCS,48896,SPACEBEE-105,PAYLOAD,U,21059T,2023/4/17 8:56,189056,15.28163874,0.0007346,97.5859,242.9247,125.1101,235.0828,0,999,10009,0.0017146,0.00047276,0,3889215,0 SPACEBEE-105,1 48896U 21059T   23107.37279154  .00047276  00000-0  17146-2 0  9990,2 48896  97.5859 242.9247 0007346 125.1101 235.0828 15.28163874100094,2021-059T,48896,6859.438,94.231,486.342,476.264,0,
GENERATED VIA SPACETRACK.ORG API,18 SPCS,48896,SPACEBEE-105,PAYLOAD,U,21059T,2023/4/17 21:31,259168,15.28213505,0.000731,97.5862,243.4581,123.3567,236.8373,0,999,10017,0.0017308,0.00047798,0,3889391,0 SPACEBEE-105,1 48896U 21059T   23107.89662337  .00047798  00000-0  17308-2 0  9995,2 48896  97.5862 243.4581 0007310 123.3567 236.8373 15.28213505100172,2021-059T,48896,6859.29,94.228,486.169,476.141,0,
GENERATED VIA SPACETRACK.ORG API,18 SPCS,48896,SPACEBEE-105,PAYLOAD,U,21059T,2023/4/18 8:31,831712,15.28251642,0.0007283,97.5863,243.9247,121.5774,238.6176,0,999,10024,0.0016203,0.00044776,0,3889684,0 SPACEBEE-105,1 48896U 21059T   23108.35496333  .00044776  00000-0  16203-2 0  9994,2 48896  97.5863 243.9247 0007283 121.5774 238.6176 15.28251642100249,2021-059T,48896,6859.176,94.225,486.036,476.045,0,
GENERATED VIA SPACETRACK.ORG API,18 SPCS,48896,SPACEBEE-105,PAYLOAD,U,21059T,2023/4/18 22:39,275520,15.28308011,0.0007173,97.5865,244.525,119.1397,241.0561,0,999,10033,0.0017815,0.00049351,0,3890078,0 SPACEBEE-105,1 48896U 21059T   23108.94423930  .00049351  00000-0  17815-2 0  9996,2 48896  97.5865 244.5250 0007173 119.1397 241.0561 15.28308011100333,2021-059T,48896,6859.007,94.222,485.792,475.952,0,
GENERATED VIA SPACETRACK.ORG API,18 SPCS,48896,SPACEBEE-105,PAYLOAD,U,21059T,2023/4/18 22:39,275520,15.28308011,0.0007173,97.5865,244.525,119.1397,241.0561,0,999,10033,0.0017815,0.00049351,0,3890383,0 SPACEBEE-105,1 48896U 21059T   23108.94423930  .00049351  00000-0  17815-2 0  9996,2 48896  97.5865 244.5250 0007173 119.1397 241.0561 15.28308011100333,2021-059T,48896,6859.007,94.222,485.792,475.952,0,
GENERATED VIA SPACETRACK.ORG API,18 SPCS,48896,SPACEBEE-105,PAYLOAD,U,21059T,2023/4/20 7:39,336576,15.28426675,0.0007113,97.587,245.9251,115.1335,245.0643,0,999,10054,0.0014355,0.00039845,0,3890827,0 SPACEBEE-105,1 48896U 21059T   23110.31913584  .00039845  00000-0  14355-2 0  9992,2 48896  97.5870 245.9251 0007113 115.1335 245.0643 15.28426675100542,2021-059T,48896,6858.652,94.215,485.396,475.638,0,
GENERATED VIA SPACETRACK.ORG API,18 SPCS,48896,SPACEBEE-105,PAYLOAD,U,21059T,2023/4/21 4:05,142272,15.28493009,0.0007129,97.5876,246.7918,111.9193,248.2804,0,999,10067,0.0013719,0.00038145,0,3891529,0 SPACEBEE-105,1 48896U 21059T   23111.17020998  .00038145  00000-0  13719-2 0  9990,2 48896  97.5876 246.7918 0007129 111.9193 248.2804 15.28493009100673,2021-059T,48896,6858.454,94.21,485.208,475.429,0,
GENERATED VIA SPACETRACK.ORG API,18 SPCS,48896,SPACEBEE-105,PAYLOAD,U,21059T,2023/4/21 8:47,818016,15.28506874,0.0007115,97.5876,246.992,111.22,248.98,0,999,10070,0.0012922,0.00035929,0,3891716,0 SPACEBEE-105,1 48896U 21059T   23111.36660669  .00035929  00000-0  12922-2 0  9998,2 48896  97.5876 246.9920 0007115 111.2200 248.9800 15.28506874100707,2021-059T,48896,6858.412,94.21,485.157,475.397,0,
GENERATED VIA SPACETRACK.ORG API,18 SPCS,48896,SPACEBEE-105,PAYLOAD,U,21059T,2023/4/21 21:22,781056,15.28549573,0.0007089,97.5878,247.5255,109.63,250.5705,0,999,10078,0.0013967,0.00038906,0,3892071,0 SPACEBEE-105,1 48896U 21059T   23111.89032154  .00038906  00000-0  13967-2 0  9996,2 48896  97.5878 247.5255 0007089 109.6300 250.5705 15.28549573100783,2021-059T,48896,6858.284,94.207,485.011,475.288,0,
GENERATED VIA SPACETRACK.ORG API,18 SPCS,48896,SPACEBEE-105,PAYLOAD,U,21059T,2023/4/22 14:38,108640,15.2860575,0.0007017,97.5878,248.2591,107.1195,253.0813,0,999,10089,0.0014049,0.00039203,0,3892140,0 SPACEBEE-105,1 48896U 21059T   23112.61040635  .00039203  00000-0  14049-2 0  9993,2 48896  97.5878 248.2591 0007017 107.1195 253.0813 15.28605750100890,2021-059T,48896,6858.116,94.203,484.794,475.169,0,
GENERATED VIA SPACETRACK.ORG API,18 SPCS,48896,SPACEBEE-105,PAYLOAD,U,21059T,2023/4/22 14:38,108640,15.2860575,0.0007017,97.5878,248.2591,107.1195,253.0813,0,999,10089,0.0014049,0.00039203,0,3892285,0 SPACEBEE-105,1 48896U 21059T   23112.61040635  .00039203  00000-0  14049-2 0  9993,2 48896  97.5878 248.2591 0007017 107.1195 253.0813 15.28605750100890,2021-059T,48896,6858.116,94.203,484.794,475.169,0,
GENERATED VIA SPACETRACK.ORG API,18 SPCS,48896,SPACEBEE-105,PAYLOAD,U,21059T,2023/4/23 7:55,210560,15.28657554,0.0006922,97.588,248.9929,104.3442,255.8566,0,999,10100,0.0012662,0.00035362,0,3892688,0 SPACEBEE-105,1 48896U 21059T   23113.33046540  .00035362  00000-0  12662-2 0  9995,2 48896  97.5880 248.9929 0006922 104.3442 255.8566 15.28657554101001,2021-059T,48896,6857.961,94.2,484.573,475.079,0,
GENERATED VIA SPACETRACK.ORG API,18 SPCS,48896,SPACEBEE-105,PAYLOAD,U,21059T,2023/4/23 14:12,592992,15.28680744,0.0006951,97.5881,249.2596,103.5665,256.6348,0,999,10104,0.0014382,0.00040231,0,3892831,0 SPACEBEE-105,1 48896U 21059T   23113.59229853  .00040231  00000-0  14382-2 0  9995,2 48896  97.5881 249.2596 0006951 103.5665 256.6348 15.28680744101044,2021-059T,48896,6857.892,94.199,484.524,474.99,0,
GENERATED VIA SPACETRACK.ORG API,18 SPCS,48896,SPACEBEE-105,PAYLOAD,U,21059T,2023/4/24 7:29,848384,15.28820018,0.0006983,97.5878,249.9929,100.5663,259.6363,0,999,10115,0.0044588,0.00126873,0,3893158,0 SPACEBEE-105,1 48896U 21059T   23114.31231306  .00126873  00000-0  44588-2 0  9990,2 48896  97.5878 249.9929 0006983 100.5663 259.6363 15.28820018101159,2021-059T,48896,6857.476,94.19,484.129,474.552,0,
GENERATED VIA SPACETRACK.ORG API,18 SPCS,48896,SPACEBEE-105,PAYLOAD,U,21059T,2023/4/24 7:29,848384,15.28820018,0.0006983,97.5878,249.9929,100.5663,259.6363,0,999,10115,0.0044588,0.00126873,0,3893330,0 SPACEBEE-105,1 48896U 21059T   23114.31231306  .00126873  00000-0  44588-2 0  9990,2 48896  97.5878 249.9929 0006983 100.5663 259.6363 15.28820018101159,2021-059T,48896,6857.476,94.19,484.129,474.552,0,
GENERATED VIA SPACETRACK.ORG API,18 SPCS,48896,SPACEBEE-105,PAYLOAD,U,21059T,2023/4/25 8:37,115168,15.28869304,0.0006957,97.5875,251.0604,97.6763,262.5267,0,999,10131,0.0012832,0.00036075,0,3894092,0 SPACEBEE-105,1 48896U 21059T   23115.35953837  .00036075  00000-0  12832-2 0  9996,2 48896  97.5875 251.0604 0006957  97.6763 262.5267 15.28869304101313,2021-059T,48896,6857.328,94.187,483.964,474.423,0,
GENERATED VIA SPACETRACK.ORG API,18 SPCS,48896,SPACEBEE-105,PAYLOAD,U,21059T,2023/4/26 8:11,715904,15.28920081,0.0006926,97.5879,252.0615,94.6654,265.5376,0,999,10146,0.001018,0.00028619,0,3894260,0 SPACEBEE-105,1 48896U 21059T   23116.34126986  .00028619  00000-0  10180-2 0  9992,2 48896  97.5879 252.0615 0006926  94.6654 265.5376 15.28920081101462,2021-059T,48896,6857.176,94.184,483.791,474.292,0,
